STARLINK-34419          
1 64412U 25129A   25196.91668981 -.00025996  00000+0 -59201-3 0  9999
2 64412  69.9994 315.0895 0003289 273.1366 308.7508 15.42722230  5729
STARLINK-34275          
1 64413U 25129B   25196.91668981 -.00017702  00000+0 -40175-3 0  9996
2 64413  69.9995 315.1102 0003293 268.6653 296.2436 15.42710940  5812
STARLINK-34225          
1 64414U 25129C   25196.76326949  .00055140  00000+0  12525-2 0  9998
2 64414  70.0000 315.6054 0003526 275.3535  84.7244 15.42735886  5708
STARLINK-34422          
1 64415U 25129D   25196.89600843  .00028033  00000+0  64033-3 0  9994
2 64415  70.0003 315.2683 0003296 270.8774  89.2030 15.42752214  5667
STARLINK-34514          
1 64416U 25129E   25196.70959834  .00057161  00000+0  12976-2 0  9994
2 64416  69.9999 315.8231 0003640 278.8848  81.1922 15.42743583  5690
STARLINK-34487          
1 64417U 25129F   25196.91668981 -.00019212  00000+0 -43635-3 0  9992
2 64417  70.0002 315.1601 0003236 272.0327 247.8656 15.42714901  5701
STARLINK-34461          
1 64418U 25129G   25196.91668981 -.00026985  00000+0 -61466-3 0  9990
2 64418  69.9997 315.0580 0003420 273.0056 336.8598 15.42725501  5816
STARLINK-34512          
1 64419U 25129H   25196.91668981 -.01538512  00000+0 -32066-1 0  9998
2 64419  70.0000 314.9691 0003410 270.2847  53.0746 15.48354140  5650
STARLINK-34503          
1 64420U 25129J   25196.91668981 -.00022929  00000+0 -52177-3 0  9996
2 64420  69.9997 315.0315 0003926 269.1892   2.6712 15.42706135  5650
STARLINK-34498          
1 64421U 25129K   25196.77857798  .00043629  00000+0  99266-3 0  9995
2 64421  70.0009 315.6624 0003602 268.1534  91.9235 15.42752133  5706
STARLINK-34434          
1 64422U 25129L   25196.70563478  .00052661  00000+0  11969-2 0  9997
2 64422  70.0003 315.8069 0003685 284.3250  75.7523 15.42731346  5693
STARLINK-34467          
1 64423U 25129M   25196.76236771  .00040574  00000+0  92367-3 0  9999
2 64423  70.0007 315.6029 0003254 274.9758  85.1052 15.42756112  5704
STARLINK-34468          
1 64424U 25129N   25196.91668981 -.00025538  00000+0 -58140-3 0  9995
2 64424  69.9999 315.1355 0003597 282.7863 259.0936 15.42725153  5819
STARLINK-34452          
1 64425U 25129P   25196.91668981 -.00026604  00000+0 -60603-3 0  9998
2 64425  69.9996 315.0840 0003124 276.3352 310.5611 15.42719614  5811
STARLINK-34432          
1 64426U 25129Q   25196.91668981 -.01866943  00000+0 -43869-1 0  9991
2 64426  70.0000 314.9781 0003906 275.1813  39.4248 15.44988441  5620
STARLINK-34480          
1 64427U 25129R   25196.08135375  .00033115  00000+0  54296-3 0  9998
2 64427  70.0007 317.2327 0003136 312.1912  47.9008 15.52302192  5605
STARLINK-34495          
1 64428U 25129S   25196.71157707  .00040402  00000+0  91984-3 0  9994
2 64428  70.0006 315.8283 0003765 276.7775  83.2978 15.42752426  5696
STARLINK-34501          
1 64429U 25129T   25196.76849025  .00032809  00000+0  74841-3 0  9996
2 64429  69.9990 315.6241 0004148 268.4591  91.6116 15.42748040  5704
STARLINK-34441          
1 64430U 25129U   25196.76434778  .00038276  00000+0  87195-3 0  9993
2 64430  70.0003 315.6092 0004407 272.5213  87.5465 15.42747123  5705
STARLINK-34524          
1 64431U 25129V   25196.76020766  .00061683  00000+0  13988-2 0  9998
2 64431  69.9998 315.5943 0003621 276.1767  83.9002 15.42751618  5645
STARLINK-34506          
1 64432U 25129W   25196.91668981 -.00013692  00000+0 -30972-3 0  9995
2 64432  69.9999 315.1469 0003613 271.1231 259.7630 15.42718766  5599
STARLINK-34451          
1 64433U 25129X   25196.91668981 -.00024335  00000+0 -55411-3 0  9997
2 64433  69.9996 315.0445 0003470 272.1666 348.7570 15.42706936  5660
STARLINK-34472          
1 64434U 25129Y   25196.91668981 -.00023230  00000+0 -52851-3 0  9996
2 64434  70.0000 315.1219 0003166 275.7345 277.1467 15.42720227  5721
STARLINK-34478          
1 64435U 25129Z   25196.91668981 -.00027073  00000+0 -61675-3 0  9990
2 64435  69.9997 315.0958 0003312 274.0182 301.8618 15.42722442  5710
STARLINK-34396          
1 64436U 25129AA  25196.72724631  .00037798  00000+0  86137-3 0  9998
2 64436  70.0006 315.4665 0003427 268.2373  91.8416 15.42742798  5648
STARLINK-34507          
1 64437U 25129AB  25196.91668981 -.00023273  00000+0 -52957-3 0  9993
2 64437  69.9997 315.0704 0003543 271.3989 326.5100 15.42714437  5818
STARLINK-34465          
1 64438U 25130A   25196.91954810  .00029801  00000+0  75134-3 0  9998
2 64438  53.1595 115.3338 0001482  94.0801 266.0373 15.39650078  4359
STARLINK-34456          
1 64439U 25130B   25196.91492214  .00037747  00000+0  94954-3 0  9993
2 64439  53.1603 115.3088 0000708  94.1748 265.9338 15.39602385  4350
STARLINK-34410          
1 64440U 25130C   25196.91668981 -.00006913  00000+0 -16304-3 0  9997
2 64440  53.1607 115.2464 0000893  84.8779 310.8839 15.39614308  5667
STARLINK-34453          
1 64441U 25130D   25196.91668981 -.02310497  00000+0 -60482-1 0  9999
2 64441  53.1607 115.1976 0000683  81.0012 339.0349 15.41650414  5605
STARLINK-34404          
1 64442U 25130E   25196.91668981 -.01872372  00000+0 -45252-1 0  9992
2 64442  53.1605 115.1597 0001433  77.6612   1.1037 15.43836866  5660
STARLINK-34403          
1 64443U 25130F   25196.51095696  .00090710  00000+0  16182-2 0  9992
2 64443  53.1610 117.0489 0000812  83.0135 277.0966 15.49343333  4290
STARLINK-34399          
1 64444U 25130G   25196.51061405  .00058943  00000+0  10581-2 0  9993
2 64444  53.1610 117.0457 0001028  86.5861 273.5265 15.49356746  4295
STARLINK-34398          
1 64445U 25130H   25196.90026184  .00033459  00000+0  66160-3 0  9992
2 64445  53.1604 115.2121 0004957 228.4141 131.6443 15.46822414  4355
STARLINK-34402          
1 64446U 25130J   25196.51198872  .00056331  00000+0  10118-2 0  9999
2 64446  53.1610 117.0553 0001448  86.7354 273.3821 15.49359322  4298
STARLINK-34450          
1 64447U 25130K   25196.51164639  .00097441  00000+0  17363-2 0  9990
2 64447  53.1609 117.0529 0001315  89.1535 270.9625 15.49341141  4296
STARLINK-34433          
1 64448U 25130L   25196.51130224  .00052158  00000+0  93889-3 0  9998
2 64448  53.1606 117.0492 0001402  89.1163 271.0007 15.49330629  4292
STARLINK-34459          
1 64449U 25130M   25196.18772172  .00046314  00000+0  83576-3 0  9995
2 64449  53.1613 118.5866 0001007 102.0173 258.0949 15.49312058  5487
STARLINK-34361          
1 64450U 25130N   25196.50992544  .00038484  00000+0  69562-3 0  9998
2 64450  53.1610 117.0401 0001018  96.4637 263.6488 15.49348481  5465
STARLINK-34392          
1 64451U 25130P   25196.50958369  .00077846  00000+0  13921-2 0  9998
2 64451  53.1612 117.0387 0001038  84.2630 275.8497 15.49343983  4298
STARLINK-34367          
1 64452U 25130Q   25196.91668981 -.01597029  00000+0 -37913-1 0  9991
2 64452  53.1603 115.1089 0001260  69.1627  34.2723 15.44372570  5651
STARLINK-34221          
1 64453U 25130R   25196.91668981 -.00003118  00000+0 -68015-4 0  9992
2 64453  53.1609 115.1887 0001595  75.8054 347.5727 15.39612225  5666
STARLINK-34282          
1 64454U 25130S   25196.89560148  .00067759  00000+0  12148-2 0  9999
2 64454  53.1609 115.1807 0001113  67.4181 292.6946 15.49332672  4357
STARLINK-34295          
1 64455U 25130T   25196.76583319  .04756513  00000+0  61632-1 0  9999
2 64455  53.1603 115.7921 0031280 203.6061 156.3516 15.53547851  4333
STARLINK-34430          
1 64456U 25130U   25196.50786864  .00080468  00000+0  14384-2 0  9990
2 64456  53.1607 117.0274 0001269  81.0671 279.0481 15.49340922  4297
STARLINK-34445          
1 64457U 25130V   25196.50752334  .00066003  00000+0  11825-2 0  9992
2 64457  53.1612 117.0240 0001179  91.9158 268.1986 15.49364045  4298
STARLINK-34439          
1 64458U 25130W   25196.76520870  .00073958  00000+0  13248-2 0  9997
2 64458  53.1613 115.7881 0001719  89.5621 270.5585 15.49318644  4335
STARLINK-34421          
1 64459U 25130X   25196.76486908  .00090036  00000+0  16069-2 0  9991
2 64459  53.1611 115.7859 0001212  94.1586 265.9562 15.49333796  4337
STARLINK-34423          
1 64460U 25130Y   25196.95804935  .00050868  00000+0  91593-3 0  9993
2 64460  53.1613 114.8575 0000901  78.2721 281.8389 15.49333606  4361
STARLINK-34418          
1 64461U 25130Z   25196.95770599  .00047771  00000+0  86089-3 0  9995
2 64461  53.1612 114.8564 0001335  94.7219 265.3943 15.49336776  4360
STARLINK-34336          
1 64462U 25130AA  25196.93837751  .00330348  00000+0  21552-2 0  9996
2 64462  53.1586 113.2678 0001368 207.0482 153.0466 15.74375542  4384
STARLINK-34400          
1 64463U 25130AB  25196.95667577  .00042405  00000+0  76566-3 0  9996
2 64463  53.1619 114.8498 0001486  92.6809 267.4370 15.49334756  4367
STARLINK-34429          
1 64464U 25130AC  25196.95702107  .00041455  00000+0  74903-3 0  9993
2 64464  53.1610 114.8514 0001835  95.7207 264.4011 15.49325235  4363
STARLINK-34449          
1 64465U 25130AD  25196.95634715  .00014040  00000+0  26037-3 0  9998
2 64465  53.1610 114.8488 0000770  98.1357 261.9739 15.49272703  4364
COSMOS 2589             
1 64467U 25131A   25196.77281203 -.00000279  00000+0  00000+0 0  9999
2 64467   0.9946 280.8629 3655360 173.8068 219.0819  1.00268214   254
BREEZE-M R/B            
1 64468U 25131B   25173.80781051 -.00000145  00000+0  00000+0 0  9997
2 64468   1.4224 285.7735 3876101 171.5822 241.3112  1.04440359    39
BREEZE-M DEB [TANK]     
1 64469U 25131C   25196.62557002  .00005542  00000+0  14124-2 0  9990
2 64469  61.0955 269.8495 6899674 178.8579 184.6611  2.77058199   650
CZ-3B R/B               
1 64470U 25132A   25196.86355777 -.00000240  00000+0  00000+0 0  9990
2 64470   0.0573 250.0862 0001654  33.3322  53.6054  1.00272545   776
CHINASAT 9C             
1 64471U 25132B   25195.35925735  .00016772  00000+0  16906-2 0  9992
2 64471  27.7511  86.2984 7326428 194.1199 120.9815  2.24693762   535
